NORAD_CAT_ID,OBJECT_NAME,OBJECT_TYPE,EPOCH,MEAN_MOTION,ECCENTRICITY,INCLINATION,RA_OF_ASC_NODE,ARG_OF_PERICENTER,MEAN_ANOMALY,BSTAR,MEAN_MOTION_DOT,MEAN_MOTION_DDOT,TLE_LINE0,TLE_LINE1,TLE_LINE2,SEMIMAJOR_AXIS,PERIOD,APOGEE,PERIGEE,DECAYED
53577.0,STARLINK-4553,PAYLOAD,2022-09-10 14:00:01,15.73171637,0.0001754,53.2158,46.8486,31.1167,131.868,0.00016926,0.00023171,0.0,0 STARLINK-4553,1 53577U 22101BC  22253.58334491  .00023171  00000-0  16926-3 0  9995,2 53577  53.2158  46.8486 0001754  31.1167 131.8680 15.73171637  1307,6727.976,91.535,351.021,348.661,0.0
53577.0,STARLINK-4553,PAYLOAD,2022-09-10 20:00:01,15.7319108,0.0001921,53.2158,45.6124,25.9419,113.7195,-0.00011776,-0.00017109,0.0,0 STARLINK-4553,1 53577U 22101BC  22253.83334491 -.00017109  00000-0 -11776-3 0  9997,2 53577  53.2158  45.6124 0001921  25.9419 113.7195 15.73191080  3496,6727.920999999999,91.534,351.07800000000015,348.49300000000005,0.0
53577.0,STARLINK-4553,PAYLOAD,2022-09-10 22:00:00,15.7318986,0.0001899,53.2152,45.2001,23.0071,228.8875,-5.7651e-05,-8.7e-05,0.0,0 STARLINK-4553,1 53577U 22101BC  22253.91667824 -.00008700  00000-0 -57651-4 0  9995,2 53577  53.2152  45.2001 0001899  23.0071 228.8875 15.73189860  1301,6727.924,91.534,351.06699999999995,348.511,0.0
53577.0,STARLINK-4553,PAYLOAD,2022-09-11 12:00:00,15.73226394,0.0002052,53.2158,42.3118,42.0159,275.5265,-0.00029601,-0.00042008,0.0,0 STARLINK-4553,1 53577U 22101BC  22254.50001157 -.00042008  00000-0 -29601-3 0  9994,2 53577  53.2158  42.3118 0002052  42.0159 275.5265 15.73226394  3593,6727.82,91.532,351.065,348.30400000000014,0.0
53577.0,STARLINK-4553,PAYLOAD,2022-09-11 14:00:01,15.73200286,0.0002121999999999,53.2157,41.9001,40.4127,29.3742,1.8568e-05,1.985e-05,0.0,0 STARLINK-4553,1 53577U 22101BC  22254.58334491  .00001985  00000-0  18568-4 0  9990,2 53577  53.2157  41.9001 0002122  40.4127  29.3742 15.73200286  1307,6727.894,91.533,351.18699999999984,348.332,0.0
53577.0,STARLINK-4553,PAYLOAD,2022-09-11 20:00:01,15.73209789,0.0002259,53.216,40.6641,35.7085,10.78,5.7843e-05,7.508e-05,0.0,0 STARLINK-4553,1 53577U 22101BC  22254.83334491  .00007508  00000-0  57843-4 0  9994,2 53577  53.2160  40.6641 0002259  35.7085  10.7800 15.73209789  3654,6727.8669999999975,91.533,351.25199999999984,348.212,0.0
53577.0,STARLINK-4553,PAYLOAD,2022-09-11 22:00:00,15.73219748,0.0002236,53.2158,40.2515,33.8079,124.9137,-8.5299e-05,-0.00012586,0.0,0 STARLINK-4553,1 53577U 22101BC  22254.91667824 -.00012586  00000-0 -85299-4 0  9992,2 53577  53.2158  40.2515 0002236  33.8079 124.9137 15.73219748  1301,6727.839,91.532,351.208,348.2,0.0
53577.0,STARLINK-4553,PAYLOAD,2022-09-12 12:00:00,15.73221763,0.0002139,53.2165,37.3633,35.2917,189.08,-0.00064066,-0.00089675,0.0,0 STARLINK-4553,1 53577U 22101BC  22255.50001157 -.00089675  00000-0 -64066-3 0  9990,2 53577  53.2165  37.3633 0002139  35.2917 189.0800 15.73221763  1305,6727.833000000001,91.532,351.13699999999994,348.259,0.0
53577.0,STARLINK-4553,PAYLOAD,2022-09-12 20:00:01,15.73126795,0.0002478,53.216,35.7155,33.2305,280.1275,0.00083042,0.00117202,0.0,0 STARLINK-4553,1 53577U 22101BC  22255.83335648  .00117202  00000-0  83042-3 0  9992,2 53577  53.2160  35.7155 0002478  33.2305 280.1275 15.73126795  3801,6728.104,91.537,351.636,348.302,0.0
53577.0,STARLINK-4553,PAYLOAD,2022-09-12 22:00:00,15.7315721,0.0002438,53.2158,35.3029,32.7241,32.7796,0.00061249,0.00086072,0.0,0 STARLINK-4553,1 53577U 22101BC  22255.91667824  .00086072  00000-0  61249-3 0  9990,2 53577  53.2158  35.3029 0002438  32.7241  32.7796 15.73157210  1301,6728.017,91.536,351.522,348.242,0.0
53577.0,STARLINK-4553,PAYLOAD,2022-09-13 14:00:01,15.73232547,0.0002173,53.2161,32.0033,22.834,220.5937,-0.00021479,-0.00030701,0.0,0 STARLINK-4553,1 53577U 22101BC  22256.58334491 -.00030701  00000-0 -21479-3 0  9996,2 53577  53.2161  32.0033 0002173  22.8340 220.5937 15.73232547  1301,6727.802,91.531,351.129,348.205,0.0
53577.0,STARLINK-4553,PAYLOAD,2022-09-13 16:00:00,15.73215825,0.0002261,53.2164,31.5912,23.1222,332.5507,-4.7377e-05,-7.269999999999999e-05,0.0,0 STARLINK-4553,1 53577U 22101BC  22256.66667824 -.00007270  00000-0 -47377-4 0  9995,2 53577  53.2164  31.5912 0002261  23.1222 332.5507 15.73215825  3933,6727.85,91.532,351.236,348.194,0.0
53577.0,STARLINK-4553,PAYLOAD,2022-09-13 20:00:01,15.73182089,0.0002326,53.2163,30.7672,19.4749,200.6334,5.4053e-05,6.966e-05,0.0,0 STARLINK-4553,1 53577U 22101BC  22256.83334491  .00006966  00000-0  54053-4 0  9993,2 53577  53.2163  30.7672 0002326  19.4749 200.6334 15.73182089  3961,6727.946,91.534,351.376,348.246,0.0
53577.0,STARLINK-4553,PAYLOAD,2022-09-13 22:00:00,15.73191049,0.0002327,53.2162,30.3545,19.5778,312.7558,-7.8817e-05,-0.00011665,0.0,0 STARLINK-4553,1 53577U 22101BC  22256.91667824 -.00011665  00000-0 -78817-4 0  9999,2 53577  53.2162  30.3545 0002327  19.5778 312.7558 15.73191049  1304,6727.920999999999,91.534,351.351,348.22,0.0
53577.0,STARLINK-4553,PAYLOAD,2022-09-14 12:00:00,15.73167931,0.0002266,53.2167,27.4669,19.7177,18.1933,0.00018955,0.00026029,0.0,0 STARLINK-4553,1 53577U 22101BC  22257.50001157  .00026029  00000-0  18955-3 0  9990,2 53577  53.2167  27.4669 0002266  19.7177  18.1933 15.73167931  4074,6727.986999999999,91.535,351.376,348.327,0.0
53577.0,STARLINK-4553,PAYLOAD,2022-09-14 14:00:01,15.73169789,0.0002367,53.2165,27.0551,18.7863,131.3482,0.00024076,0.00033261,0.0,0 STARLINK-4553,1 53577U 22101BC  22257.58334491  .00033261  00000-0  24076-3 0  9995,2 53577  53.2165  27.0551 0002367  18.7863 131.3482 15.73169789  1304,6727.981,91.535,351.439,348.254,0.0
53577.0,STARLINK-4553,PAYLOAD,2022-09-14 22:00:00,15.73227372,0.0002461999999999,53.2159,25.4059,14.4746,224.5752,-0.00032244,-0.00045689,0.0,0 STARLINK-4553,1 53577U 22101BC  22257.91667824 -.00045689  00000-0 -32244-3 0  9996,2 53577  53.2159  25.4059 0002462  14.4746 224.5752 15.73227372  1309,6727.816999999999,91.532,351.339,348.026,0.0
53577.0,STARLINK-4553,PAYLOAD,2022-09-15 14:00:01,15.73219063,0.00025,53.2162,22.1069,17.5646,39.3883,0.00011202,0.00015142,0.0,0 STARLINK-4553,1 53577U 22101BC  22258.58334491  .00015142  00000-0  11202-3 0  9991,2 53577  53.2162  22.1069 0002500  17.5646  39.3883 15.73219063  1309,6727.840999999999,91.532,351.38800000000015,348.024,0.0
53577.0,STARLINK-4553,PAYLOAD,2022-09-15 22:00:00,15.73271881,0.0002641,53.2163,20.4574,16.3837,129.5136,-0.00063848,-0.00089573,0.0,0 STARLINK-4553,1 53577U 22101BC  22258.91667824 -.00089573  00000-0 -63848-3 0  9991,2 53577  53.2163  20.4574 0002641  16.3837 129.5136 15.73271881  4297,6727.69,91.529,351.332,347.778,0.0
53577.0,STARLINK-4553,PAYLOAD,2022-09-16 11:06:16,15.73236387,1.18e-05,53.2263,17.7855,107.4877,252.6185,0.0001,0.0001346,0.0,0 STARLINK-4553,1 53577U 22101BC  22259.46269360  .00013460  00000-0  10000-3 0  9997,2 53577  53.2263  17.7855 0000118 107.4877 252.6185 15.73236387  4375,6727.791,91.531,349.736,349.577,0.0
53577.0,STARLINK-4553,PAYLOAD,2022-09-16 14:00:01,15.73193075,0.0002705,53.2164,17.1582,15.5806,308.2196,-0.00044962,-0.00063245,0.0,0 STARLINK-4553,1 53577U 22101BC  22259.58334491 -.00063245  00000-0 -44962-3 0  9990,2 53577  53.2164  17.1582 0002705  15.5806 308.2196 15.73193075  4399,6727.915,91.534,351.6,347.96,0.0
53577.0,STARLINK-4553,PAYLOAD,2022-09-16 22:00:00,15.73151597,0.0002761,53.2159,15.5086,9.8237,42.8688,-0.00014317,-0.00020628,0.0,0 STARLINK-4553,1 53577U 22101BC  22259.91667824 -.00020628  00000-0 -14317-3 0  9995,2 53577  53.2159  15.5086 0002761   9.8237  42.8688 15.73151597  4457,6728.033,91.536,351.756,348.041,0.0
53577.0,STARLINK-4553,PAYLOAD,2022-09-17 14:00:01,15.73187444,0.0002832,53.2161,12.2102,11.0269,219.411,0.00028801,0.00039975,0.0,0 STARLINK-4553,1 53577U 22101BC  22260.58334491  .00039975  00000-0  28801-3 0  9997,2 53577  53.2161  12.2102 0002832  11.0269 219.4110 15.73187444  4555,6727.931,91.534,351.701,347.891,0.0
53577.0,STARLINK-4553,PAYLOAD,2022-09-17 22:00:00,15.73263499,0.0002924,53.2163,10.5603,10.8613,308.496,-0.00038641,-0.00054662,0.0,0 STARLINK-4553,1 53577U 22101BC  22260.91667824 -.00054662  00000-0 -38641-3 0  9998,2 53577  53.2163  10.5603 0002924  10.8613 308.4960 15.73263499  1303,6727.714,91.529,351.546,347.612,0.0
53577.0,STARLINK-4553,PAYLOAD,2022-09-18 14:00:01,15.73261474,0.0003113,53.2165,7.2612,15.2504,122.1077,-0.00026353,-0.00037551,0.0,0 STARLINK-4553,1 53577U 22101BC  22261.58335648 -.00037551  00000-0 -26353-3 0  9993,2 53577  53.2165   7.2612 0003113  15.2504 122.1077 15.73261474  4716,6727.72,91.53,351.67900000000014,347.491,0.0
53577.0,STARLINK-4553,PAYLOAD,2022-09-18 22:00:00,15.73240116,0.0003078,53.2161,5.6112,11.5075,214.7714,-2.0059e-06,-9.06e-06,0.0,0 STARLINK-4553,1 53577U 22101BC  22261.91667824 -.00000906  00000-0 -20059-5 0  9997,2 53577  53.2161   5.6112 0003078  11.5075 214.7714 15.73240116  1309,6727.781,91.531,351.717,347.575,0.0
53577.0,STARLINK-4553,PAYLOAD,2022-09-19 06:00:02,15.73202805,0.0003085,53.2174,3.9548,21.0685,294.1811,1.9597e-05,2.129e-05,0.0,0 STARLINK-4553,1 53577U 22101BC  22262.25002315  .00002129  00000-0  19597-4 0  9994,2 53577  53.2174   3.9548 0003085  21.0685 294.1811 15.73202805  4810,6727.887,91.533,351.82800000000015,347.677,0.0
53577.0,STARLINK-4553,PAYLOAD,2022-09-19 14:00:01,15.73205874,0.0003218,53.2173,2.3075,20.8296,23.2862,-2.0391e-05,-3.485e-05,0.0,0 STARLINK-4553,1 53577U 22101BC  22262.58334491 -.00003485  00000-0 -20391-4 0  9995,2 53577  53.2173   2.3075 0003218  20.8296  23.2862 15.73205874  1307,6727.878000000002,91.533,351.908,347.57800000000015,0.0
53577.0,STARLINK-4553,PAYLOAD,2022-09-19 22:00:00,15.73258375,0.0003214,53.2165,0.6625,6.9887,126.1379,-0.00078369,-0.00109499,0.0,0 STARLINK-4553,1 53577U 22101BC  22262.91667824 -.00109499  00000-0 -78369-3 0  9990,2 53577  53.2165   0.6625 0003214   6.9887 126.1379 15.73258375  1307,6727.729,91.53,351.756,347.431,0.0
